NORAD_CAT_ID,OBJECT_NAME,OBJECT_TYPE,EPOCH,MEAN_MOTION,ECCENTRICITY,INCLINATION,RA_OF_ASC_NODE,ARG_OF_PERICENTER,MEAN_ANOMALY,BSTAR,MEAN_MOTION_DOT,MEAN_MOTION_DDOT,TLE_LINE0,TLE_LINE1,TLE_LINE2,SEMIMAJOR_AXIS,PERIOD,APOGEE,PERIGEE,DECAYED
52299.0,STARLINK-3759,PAYLOAD,2024-04-04 05:01:15,15.08842567,0.0001329,53.217,21.6546,96.7344,263.3799,0.00032044,4.816e-05,0.0,0 STARLINK-3759,1 52299U 22041AQ  24095.20921074  .00004816  00000-0  32044-3 0  9996,2 52299  53.2170  21.6546 0001329  96.7344 263.3799 15.08842567109374,6917.873,95.437,540.657,538.818,0.0
52299.0,STARLINK-3759,PAYLOAD,2024-04-04 22:30:30,15.08843905,0.000146,53.2189,18.3817,96.3831,263.7327,0.00026404,3.917e-05,0.0,0 STARLINK-3759,1 52299U 22041AQ  24095.93785146  .00003917  00000-0  26404-3 0  9998,2 52299  53.2189  18.3817 0001460  96.3831 263.7327 15.08843905108266,6917.868,95.437,540.743,538.723,0.0
52299.0,STARLINK-3759,PAYLOAD,2024-04-05 11:13:35,15.08849324,0.0001219,53.2171,16.003,83.2724,276.8407,0.00029099,4.347e-05,0.0,0 STARLINK-3759,1 52299U 22041AQ  24096.46776812  .00004347  00000-0  29099-3 0  9998,2 52299  53.2171  16.0030 0001219  83.2724 276.8407 15.08849324109566,6917.852,95.437,540.56,538.874,0.0
52299.0,STARLINK-3759,PAYLOAD,2024-04-06 11:04:21,15.08846006,0.0001479,53.2185,11.5454,94.0913,266.0248,8.7711e-05,1.108e-05,0.0,0 STARLINK-3759,1 52299U 22041AQ  24097.46136548  .00001108  00000-0  87711-4 0  9993,2 52299  53.2185  11.5454 0001479  94.0913 266.0248 15.08846006109714,6917.862,95.437,540.75,538.704,0.0
52299.0,STARLINK-3759,PAYLOAD,2024-04-06 22:12:04,15.08839593,0.0002409,53.2195,9.4641,84.7909,275.3358,-4.7769e-05,-1.049e-05,0.0,0 STARLINK-3759,1 52299U 22041AQ  24097.92505159 -.00001049  00000-0 -47769-4 0  9997,2 52299  53.2195   9.4641 0002409  84.7909 275.3358 15.08839593108564,6917.882,95.438,541.413,538.08,0.0
52299.0,STARLINK-3759,PAYLOAD,2024-04-07 10:55:09,15.08839471,0.00017,53.22,7.0845,83.8649,276.2537,1.6651e-05,-2.3e-07,0.0,0 STARLINK-3759,1 52299U 22041AQ  24098.45497177 -.00000023  00000-0  16651-4 0  9992,2 52299  53.2200   7.0845 0001700  83.8649 276.2537 15.08839471108648,6917.882,95.438,540.923,538.571,0.0
52299.0,STARLINK-3759,PAYLOAD,2024-04-07 22:02:51,15.08838501,0.0001749,53.2198,5.0061,92.7507,267.3685,3.5515e-05,2.77e-06,0.0,0 STARLINK-3759,1 52299U 22041AQ  24098.91865374  .00000277  00000-0  35515-4 0  9991,2 52299  53.2198   5.0061 0001749  92.7507 267.3685 15.08838501108713,6917.885,95.438,540.96,538.54,0.0
52299.0,STARLINK-3759,PAYLOAD,2024-04-08 10:45:56,15.08844175,0.0001699,53.2199,2.6259,89.5183,270.6004,0.0001059,1.398e-05,0.0,0 STARLINK-3759,1 52299U 22041AQ  24099.44857191  .00001398  00000-0  10590-3 0  9998,2 52299  53.2199   2.6259 0001699  89.5183 270.6004 15.08844175110016,6917.868,95.437,540.908,538.557,0.0
52299.0,STARLINK-3759,PAYLOAD,2024-04-08 23:29:01,15.08846603,0.0001328,53.2179,0.2481,90.366,269.7484,0.00030504,4.571e-05,0.0,0 STARLINK-3759,1 52299U 22041AQ  24099.97849052  .00004571  00000-0  30504-3 0  9996,2 52299  53.2179   0.2481 0001328  90.3660 269.7484 15.08846603108874,6917.86,95.437,540.644,538.807,0.0
52299.0,STARLINK-3759,PAYLOAD,2024-04-09 10:36:43,15.08841507,0.0001593,53.2202,358.1632,83.9024,276.2149,8.9521e-05,1.137e-05,0.0,0 STARLINK-3759,1 52299U 22041AQ  24100.44217182  .00001137  00000-0  89521-4 0  9993,2 52299  53.2202 358.1632 0001593  83.9024 276.2149 15.08841507108947,6917.876,95.437,540.843,538.639,0.0
52299.0,STARLINK-3759,PAYLOAD,2024-04-09 16:58:16,15.08842276,0.0001742,53.218,356.977,78.1492,281.9695,0.00017455,2.491e-05,0.0,0 STARLINK-3759,1 52299U 22041AQ  24100.70713452  .00002491  00000-0  17455-3 0  9993,2 52299  53.2180 356.9770 0001742  78.1492 281.9695 15.08842276110207,6917.873,95.437,540.944,538.533,0.0
52299.0,STARLINK-3759,PAYLOAD,2024-04-09 23:19:48,15.08838699,0.0001607,53.2202,355.7852,85.6522,274.4654,5.8347e-05,6.41e-06,0.0,0 STARLINK-3759,1 52299U 22041AQ  24100.97209436  .00000641  00000-0  58347-4 0  9995,2 52299  53.2202 355.7852 0001607  85.6522 274.4654 15.08838699109021,6917.884,95.438,540.861,538.638,0.0
52299.0,STARLINK-3759,PAYLOAD,2024-04-10 10:27:30,15.08842605,0.0001491,53.2187,353.7032,88.4388,271.6775,0.00010209,1.337e-05,0.0,0 STARLINK-3759,1 52299U 22041AQ  24101.43577400  .00001337  00000-0  10209-3 0  9993,2 52299  53.2187 353.7032 0001491  88.4388 271.6775 15.08842605109095,6917.872,95.437,540.769,538.706,0.0
52299.0,STARLINK-3759,PAYLOAD,2024-04-10 19:59:49,15.08845102,0.0001476,53.2202,351.9192,86.5108,273.6053,0.00010248,1.344e-05,0.0,0 STARLINK-3759,1 52299U 22041AQ  24101.83321241  .00001344  00000-0  10248-3 0  9998,2 52299  53.2202 351.9192 0001476  86.5108 273.6053 15.08845102110371,6917.865,95.437,540.751,538.709,0.0
52299.0,STARLINK-3759,PAYLOAD,2024-04-10 21:35:12,15.08843677,0.0001465,53.22,351.6218,86.8984,273.2176,0.00012027,1.627e-05,0.0,0 STARLINK-3759,1 52299U 22041AQ  24101.89945326  .00001627  00000-0  12027-3 0  9991,2 52299  53.2200 351.6218 0001465  86.8984 273.2176 15.08843677109160,6917.869,95.437,540.748,538.721,0.0
52299.0,STARLINK-3759,PAYLOAD,2024-04-11 02:21:22,15.08844298,0.0001494,53.2188,350.7275,99.9762,260.1399,0.00028566,4.262e-05,0.0,0 STARLINK-3759,1 52299U 22041AQ  24102.09817226  .00004262  00000-0  28566-3 0  9994,2 52299  53.2188 350.7275 0001494  99.9762 260.1399 15.08844298109194,6917.867,95.437,540.766,538.699,0.0
52299.0,STARLINK-3759,PAYLOAD,2024-04-11 21:26:00,15.08828271,0.0001745,53.2189,347.1604,117.4046,242.7124,7.1321e-06,-1.75e-06,0.0,0 STARLINK-3759,1 52299U 22041AQ  24102.89306443 -.00000175  00000-0  71321-5 0  9995,2 52299  53.2189 347.1604 0001745 117.4046 242.7124 15.08828271110536,6917.916,95.438,540.988,538.574,0.0
52299.0,STARLINK-3759,PAYLOAD,2024-04-11 23:01:23,15.08829722,0.0001501,53.2184,346.8619,109.3233,250.7922,1.2135e-05,-9.5e-07,0.0,0 STARLINK-3759,1 52299U 22041AQ  24102.95930468 -.00000095  00000-0  12135-4 0  9990,2 52299  53.2184 346.8619 0001501 109.3233 250.7922 15.08829722109323,6917.912,95.438,540.815,538.738,0.0
52299.0,STARLINK-3759,PAYLOAD,2024-04-12 22:52:09,15.08853445,0.0001274,53.218,342.4024,70.574,289.539,0.00032797,4.937e-05,0.0,0 STARLINK-3759,1 52299U 22041AQ  24103.95289208  .00004937  00000-0  32797-3 0  9993,2 52299  53.2180 342.4024 0001274  70.5740 289.5390 15.08853445109474,6917.839,95.437,540.586,538.823,0.0
52299.0,STARLINK-3759,PAYLOAD,2024-04-13 02:02:56,15.08851718,0.0001634,53.2194,341.8199,59.7724,300.343,0.00027879,4.153e-05,0.0,0 STARLINK-3759,1 52299U 22041AQ  24104.08537517  .00004153  00000-0  27879-3 0  9992,2 52299  53.2194 341.8199 0001634  59.7724 300.3430 15.08851718110713,6917.845,95.437,540.84,538.579,0.0
52299.0,STARLINK-3759,PAYLOAD,2024-04-13 21:07:34,15.08835147,0.0001341,53.2184,338.2453,103.2605,256.8537,9.4746e-06,-1.37e-06,0.0,0 STARLINK-3759,1 52299U 22041AQ  24104.88025949 -.00000137  00000-0  94746-5 0  9999,2 52299  53.2184 338.2453 0001341 103.2605 256.8537 15.08835147110837,6917.895,95.438,540.688,538.833,0.0
52299.0,STARLINK-3759,PAYLOAD,2024-04-14 22:33:44,15.08850359,0.0001202,53.2173,333.487,93.5623,266.5507,0.00049357,7.578e-05,0.0,0 STARLINK-3759,1 52299U 22041AQ  24105.94009852  .00007578  00000-0  49357-3 0  9993,2 52299  53.2173 333.4870 0001202  93.5623 266.5507 15.08850359109770,6917.849,95.437,540.545,538.882,0.0
52299.0,STARLINK-3759,PAYLOAD,2024-04-15 01:44:30,15.08857575,0.0001234,53.2172,332.8896,100.0694,260.0438,0.00064533,0.00010002,0.0,0 STARLINK-3759,1 52299U 22041AQ  24106.07257585  .00010002  00000-0  64533-3 0  9995,2 52299  53.2172 332.8896 0001234 100.0694 260.0438 15.08857575111016,6917.827,95.436,540.545,538.838,0.0
52299.0,STARLINK-3759,PAYLOAD,2024-04-15 20:49:08,15.08851033,0.0001456,53.2178,329.3145,125.8465,234.2663,0.00034736,5.246e-05,0.0,0 STARLINK-3759,1 52299U 22041AQ  24106.86745371  .00005246  00000-0  34736-3 0  9993,2 52299  53.2178 329.3145 0001456 125.8465 234.2663 15.08851033111136,6917.847,95.437,540.719,538.704,0.0
52299.0,STARLINK-3759,PAYLOAD,2024-04-16 07:56:50,15.08851795,0.0001219,53.2176,327.2422,82.1651,277.948,0.00041548,6.333e-05,0.0,0 STARLINK-3759,1 52299U 22041AQ  24107.33113521  .00006333  00000-0  41548-3 0  9999,2 52299  53.2176 327.2422 0001219  82.1651 277.9480 15.08851795109984,6917.844,95.437,540.553,538.866,0.0
52299.0,STARLINK-3759,PAYLOAD,2024-04-16 20:39:54,15.0885434,0.0001248,53.2169,324.8608,86.0881,274.0254,0.00049901,7.666e-05,0.0,0 STARLINK-3759,1 52299U 22041AQ  24107.86105250  .00007666  00000-0  49901-3 0  9998,2 52299  53.2169 324.8608 0001248  86.0881 274.0254 15.08854340111287,6917.837,95.437,540.565,538.838,0.0
52299.0,STARLINK-3759,PAYLOAD,2024-04-16 23:50:40,15.08865074,0.0001295,53.2171,324.2626,95.4533,264.6607,0.000783,0.00012204,0.0,0 STARLINK-3759,1 52299U 22041AQ  24107.99352861  .00012204  00000-0  78300-3 0  9993,2 52299  53.2171 324.2626 0001295  95.4533 264.6607 15.08865074111300,6917.804,95.436,540.565,538.773,0.0
52299.0,STARLINK-3759,PAYLOAD,2024-04-17 20:30:42,15.08835393,0.0001425,53.2176,320.3988,89.8556,270.26,0.00010713,1.417e-05,0.0,0 STARLINK-3759,1 52299U 22041AQ  24108.85465994  .00001417  00000-0  10713-3 0  9999,2 52299  53.2176 320.3988 0001425  89.8556 270.2600 15.08835393111431,6917.894,95.438,540.745,538.774,0.0
52299.0,STARLINK-3759,PAYLOAD,2024-04-17 23:41:29,15.08835492,0.0001625,53.2179,319.8024,70.5526,289.5641,0.00020871,3.035e-05,0.0,0 STARLINK-3759,1 52299U 22041AQ  24108.98714230  .00003035  00000-0  20871-3 0  9997,2 52299  53.2179 319.8024 0001625  70.5526 289.5641 15.08835492110239,6917.894,95.438,540.883,538.635,0.0
52299.0,STARLINK-3759,PAYLOAD,2024-04-18 20:21:30,15.08845222,0.0001687,53.2188,315.9352,91.7746,268.344,0.000632,9.786e-05,0.0,0 STARLINK-3759,1 52299U 22041AQ  24109.84826432  .00009786  00000-0  63200-3 0  9993,2 52299  53.2188 315.9352 0001687  91.7746 268.3440 15.08845222110365,6917.864,95.437,540.896,538.562,0.0
